Cluster,StoreNum,StoreName,Address,City,Zip,State,Grade,StoreFormat,Climate,Region,Latitude,Longitude,TotalDemandAmt,TotalNetAmt
2,1874," NASHVILLE, TN",5016 BROADWAY PLACE,NASHVILLE,37203,TN,F,METRO,UNKNOWN,EAST COAST-MID-ATLANTIC DISTRICT,36.1605041,-86.7799532,15579286.97,9247153.65
2,857, BUFFALO NY WALDEN GAL,1  WALDEN GALLERIA #L-118,BUFFALO,14225,NY,B2,TRADITIONAL MALL,COLD,CENTRAL-MID-WEST DISTRICT,42.9135693,-78.7633117,4858837.96,2793672.61
2,1836, PORTLAND BREWERY BLK,185 NW 11TH AVENUE,PORTLAND,97209,OR,A1,LIFESTYLE CENTER,COLD,WEST COAST-NORTHWEST DISTRICT,45.5234936,-122.6825271,19982481.31,11185004.88
2,1840," MADISON, WI HILLDALE",709 HILLDALE WAY,MADISON,53705,WI,F,TRADITIONAL MALL,COLD,CENTRAL-GREATER CHICAGO,43.073207,-89.4535335,3824580.98,2066634.26
2,1844," EDINA, MN GALLERIA",#3395 GALLERIA,EDINA,55435,MN,B1,TRADITIONAL MALL,COLD,CENTRAL-GREATER CHICAGO,44.8771833,-93.3248446,18594056.5,10377253.06
2,1849," GRAND RAPIDS, MI",1946 BRETON RD. SE,GRAND RAPIDS,49506,MI,C2,LIFESTYLE CENTER,COLD,CENTRAL-GREATER CHICAGO,42.9283235,-85.6074351,4057421.42,2428770.27
2,878, INDIANAPOLIS  FASHION,8701 KEYSTONE CROSSING,INDIANAPOLIS,46240,IN,F,TRADITIONAL MALL,COLD,CENTRAL-MID-WEST DISTRICT,39.9139901,-86.1093871,9819626.45,6006068.74
2,880," TIGARD, OR BRIDGEPORT",7283  SW BRIDGEPORT RD.,TIGARD,97224,OR,C3,LIFESTYLE CENTER,COLD,WEST COAST-NORTHWEST DISTRICT,45.3969205,-122.751397,18344951.03,10143275.09
2,1808, COLUMBUS OH  EASTON,4008 FENLON ST.,COLUMBUS,43219,OH,B3,LIFESTYLE CENTER,COLD,CENTRAL-MID-WEST DISTRICT,40.0519492,-82.9139101,9153038.18,5337385.86
2,1850," SPOKANE, WA",865 W. MAIN AVENUE,SPOKANE,99201,WA,C2,METRO,COLD,WEST COAST-NORTHWEST DISTRICT,47.6588694,-117.4242868,3029105.66,1752739.98
2,1857," LEXINGTON, KY","151 LARUE, #120",LEXINGTON,40517,KY,C2,LIFESTYLE CENTER,COLD,CENTRAL-MID-WEST DISTRICT,37.9777842,-84.5260468,2155503.08,1453184.29
2,836, SEATTLE WA  UNIV VILL,2680  NE UNIV VILLAGE ST.,SEATTLE,98105,WA,F,LIFESTYLE CENTER,COLD,WEST COAST-NORTHWEST DISTRICT,47.6634928,-122.2979606,25640419.28,14049020.49
2,839, PITTSBURGH PA  BAKERY,6425 PENN AVENUE,PITTSBURGH,15206,PA,F,METRO,COLD,CENTRAL-MID-WEST DISTRICT,40.4569922,-79.9171553,12466455.12,7436828
2,826," SEATTLE, WA   STEWART",101  STEWART ST.,SEATTLE,98101,WA,C3,METRO,COLD,WEST COAST-NORTHWEST DISTRICT,47.6103002,-122.3408604,25325208.18,13876444.61
2,1829, ST LOUIS MO GALLERIA,1436 ST LOUIS GALLERIA,ST. LOUIS,63117,MO,A1,TRADITIONAL MALL,COLD,CENTRAL-MID-WEST DISTRICT,38.6354047,-90.3484533,8108244.37,4911480.61
2,1867," LONE TREE, CO",8423 PARK MEADOWS CTR DR,LONE TREE,80124,CO,F,TRADITIONAL MALL,COLD,CENTRAL-MOUNTAIN DISTRICT,39.562587,-104.878022,27464206,15592010.05
2,6018, FP MOV PITTSBURGH PA,1000 ROSS PARK MALL DR.,PITTSBURGH,15237,PA,UNKNOWN,UNKNOWN,UNKNOWN,EAST COAST-MVMT - EAST COAST,40.5441932,-80.0071943,12152423.8,7207831.64
2,6027," EDINA, MN",3930 MARKET STREET,EDINA,55424,MN,UNKNOWN,UNKNOWN,UNKNOWN,EAST COAST-MVMT - EAST COAST,44.913652,-93.3302072,18772662.23,10477298.88
2,1854," BROOKFIELD, WI",200 N. MARKET ST.,BROOKFIELD,53045,WI,C3,LIFESTYLE CENTER,COLD,CENTRAL-GREATER CHICAGO,43.0340209,-88.1630848,6896285.78,3996386.73
2,1865," PARK CITY, UT",638 PARK AVENUE,PARK CITY,84060,UT,F,LIFESTYLE CENTER,COLD,CENTRAL-MOUNTAIN DISTRICT,40.6460622,-111.4979729,6925577.55,4054657.51
2,1806, SALT LAKE CITYCTYCRK,50 S. MAIN ST.,SALT LAKE CITY,84101,UT,C3,LIFESTYLE CENTER,COLD,CENTRAL-MOUNTAIN DISTRICT,40.7683333,-111.8913889,16276053.5,9634452.44
2,1861," CINCINNATI, OH",7875 MONTGOMERY RD.,CINCINNATI,45236,OH,F,TRADITIONAL MALL,COLD,CENTRAL-MID-WEST DISTRICT,39.2022378,-84.3772003,7296719.86,4435001.38
2,1807, MALL AMER BLOOMINGTN,149  SOUTH AVENUE,BLOOMINGTON,55425,MN,A2,TRADITIONAL MALL,COLD,CENTRAL-GREATER CHICAGO,44.8535309,-93.2431933,17912057.91,9967782.51
2,823, - BELLEVUE SQUARE WA,1056 BELLEVUE SQUARE,BELLEVUE,98004,WA,F,TRADITIONAL MALL,COLD,WEST COAST-NORTHWEST DISTRICT,47.6202333,-122.2017028,25678053.06,14094995.42
2,838," DENVER, CO CHERRY CRK",3000  E. 1ST AVENUE,DENVER,80206,CO,A1,TRADITIONAL MALL,COLD,CENTRAL-MOUNTAIN DISTRICT,39.7168183,-104.9526302,30169438.15,17314123.09
2,865," VICTOR, NY  EASTVIEW",355  EASTVIEW MALL,VICTOR,14564,NY,C3,TRADITIONAL MALL,COLD,CENTRAL-MID-WEST DISTRICT,43.0290737,-77.4432825,4336141.61,2487178.31
2,866, KANSAS CITY MO CC PLZ,440  NICHOLS RD.,KANSAS CITY,64112,MO,F,LIFESTYLE CENTER,COLD,CENTRAL-MID-WEST DISTRICT,39.0416157,-94.5930974,8822147.34,5559053.85
2,871, WOODMERE OH   ETON,28699 CHAGRIN BLVD,WOODMERE,44122,OH,F,LIFESTYLE CENTER,COLD,CENTRAL-MID-WEST DISTRICT,41.46308,-81.4776192,8328699.49,4918106.47
2,1813, PITTSBURGH ROSS PARK,1000 ROSS PARK MALL DR.,PITTSBURGH,15237,PA,B2,TRADITIONAL MALL,COLD,CENTRAL-MID-WEST DISTRICT,40.5439917,-80.0074183,12179025.9,7224029.54
2,6033, FP MOV W DES MOINES,101 JORDAN CREEK PKWY,WEST DES MOINES,50266,IA,UNKNOWN,UNKNOWN,UNKNOWN,EAST COAST-MVMT - EAST COAST,41.5698453,-93.8030635,2589863.52,1641367.04
2,6014, FP MOV INDIANAPOLIS,8702 KEYSTONE CROSSING,INDIANAPOLIS,46240,IN,UNKNOWN,UNKNOWN,UNKNOWN,EAST COAST-MVMT - EAST COAST,39.9146201,-86.11124,9815050.65,6002770.94
2,6023, FP MOV ORANGE VILLAG,311 PARK AVE,ORANGE VILLAGE,44122,OH,UNKNOWN,UNKNOWN,UNKNOWN,EAST COAST-MVMT - EAST COAST,41.4525085,-81.4867335,8440987.77,4991627.93
2,1885," RIVERTON, UT",4533 W KESTREL RANGE RD,RIVERTON,84096,UT,UNKNOWN,UNKNOWN,UNKNOWN,CENTRAL-MOUNTAIN DISTRICT,40.510098,-111.9989421,19079411.71,11469188.59
2,837, NASHVILLE  GREEN HILL,2126 ABBOTT MARTIN ROAD,NASHVILLE,37215,TN,A3,TRADITIONAL MALL,MILD,EAST COAST-MID-ATLANTIC DISTRICT,36.1071345,-86.8173774,15628638.9,9293237.7