Cluster,StoreNum,StoreName,Address,City,Zip,State,Grade,StoreFormat,Climate,Region,Latitude,Longitude,TotalDemandAmt,TotalNetAmt
3,1821, ALPHARETTA GA AVALON,3160 AVALON BLVD,ALPHARETTA,30009,GA,B2,LIFESTYLE CENTER,WARM,EAST COAST-SOUTHEAST DISTRICT,34.0709773,-84.2769734,23852917.68,14421774.2
3,1847, CHARLOTTE ATHERTON M,2000 SOUTH BLVD.,CHARLOTTE,28203,NC,A1,LIFESTYLE CENTER,MILD,EAST COAST-MID-ATLANTIC DISTRICT,35.2087528,-80.8607778,14987240.65,9124553.55
3,1862," CHARLESTON, SC",466 KING ST.,CHARLESTON,29403,SC,F,METRO,MILD,EAST COAST-SOUTHEAST DISTRICT,32.7897082,-79.9387041,7222231.54,4252168.73
3,1868," KNOXVILLE, TN",5330 KINGSTON PIKE,KNOXVILLE,37919,TN,F,UNKNOWN,MILD,EAST COAST-MID-ATLANTIC DISTRICT,35.9367207,-83.990713,4014865.03,2559511.91
3,1880," BATON ROUGE, LA",10000 PERKINS ROWE,BATON ROUGE,70810,LA,UNKNOWN,UNKNOWN,UNKNOWN,EAST COAST-SOUTHEAST DISTRICT,30.3789585,-91.0942794,2568608.49,1776340.39
3,1884," CARY, NC",8 FENTON MAIN STREET,CARY,27511,NC,UNKNOWN,UNKNOWN,UNKNOWN,EAST COAST-MID-ATLANTIC DISTRICT,35.7811681,-78.758213,10457026.2,6344707.73
3,1883," SANTA ROSA BEACH, FL",4771 E COUNTY HWY 30A,SANTA ROSA BEACH,32459,FL,F,UNKNOWN,UNKNOWN,EAST COAST-SOUTHEAST DISTRICT,30.3121528,-86.098925,1323578.45,890418.83
3,832," AUSTIN LAMAR BLVD, TX",524  LAMAR BLVD,AUSTIN,78703,TX,F,METRO,HOT,CENTRAL-TEXAS,30.2712053,-97.7544452,23798553.95,13740441.71
3,6010, FP MOV FORT WORTH TX,1600 S. UNIVERSITY DRIVE,FORT WORTH,76107,TX,UNKNOWN,UNKNOWN,UNKNOWN,WEST COAST-MVMT - WEST COAST,32.7286945,-97.3633408,9280858.71,5858797.83
3,6015, FP MOV ATLANTA,3500 PEACHTREE RD.,ATLANTA,30326,GA,UNKNOWN,UNKNOWN,UNKNOWN,EAST COAST-MVMT - EAST COAST,33.8528035,-84.3622556,28356431.89,16732614.67
3,6020, FP MOV HOUSTON TX,5135 W. ALABAMA STREET,HOUSTON,77056,TX,UNKNOWN,UNKNOWN,UNKNOWN,WEST COAST-MVMT - WEST COAST,29.737703,-95.4644579,14671202.21,8924958.15
3,1872," TULSA, OK",3514 SOUTH PEORIA AVE.,TULSA,74105,OK,UNKNOWN,LIFESTYLE CENTER,MILD,CENTRAL-MOUNTAIN DISTRICT,36.112936,-95.9758593,3336672.95,2181727.66
3,1881," SOUTHLAKE, TX",1434 MAIN STREET,SOUTHLAKE,76092,TX,F,UNKNOWN,UNKNOWN,CENTRAL-TEXAS,32.942579,-97.1298603,14118724.91,8702705.29
3,1856," WOODLANDS, TX",1201 LAKE WOODLANDS DR.,THE WOODLANDS,77380,TX,A2,TRADITIONAL MALL,HOT,CENTRAL-TEXAS,30.163701,-95.4542747,6017063.8,3939768.12
3,6029," FP MOV DALLAS, TX",2620 MAIN STREET,DALLAS,75226,TX,UNKNOWN,UNKNOWN,UNKNOWN,WEST COAST-MVMT - WEST COAST,32.783341,-96.785554,19299669.74,11627219.99
3,812, AUSTIN TX  THE DOMAIN,11700 ROCKS ROSE AVE,AUSTIN,78758,TX,A1,LIFESTYLE CENTER,HOT,CENTRAL-TEXAS,30.4038195,-97.7219177,24269391.95,13976723.08
3,813, DALLAS TX NRTHPRK CTR,8687 N CENTRAL EXPY,DALLAS,75225,TX,F,TRADITIONAL MALL,HOT,CENTRAL-TEXAS,32.8687357,-96.7718582,23142562.4,13970145.59
3,824, SAN ANTONIO TX CNTERA,15900  LA CANTERA PKWY,SAN ANTONIO,78256,TX,F,LIFESTYLE CENTER,HOT,CENTRAL-TEXAS,29.5915628,-98.614716,6564010.24,4222377.12
3,840, HOUSTON TX CITYCENTRE,801 TOWN AND COUNTRY BLVD,HOUSTON,77024,TX,F,LIFESTYLE CENTER,HOT,CENTRAL-TEXAS,29.7810228,-95.5592668,16625699.91,10075246.06
3,845, HOUSTON GALLERIA IV,5135  W. ALABAMA ST.,HOUSTON,77056,TX,F,TRADITIONAL MALL,HOT,CENTRAL-TEXAS,29.7376256,-95.4643947,14663210.41,8923890.55
3,850," ATLANTA, GA  LENOX SQ",3393  PEACHTREE RD N.E.,ATLANTA,30326,GA,F,TRADITIONAL MALL,MILD,EAST COAST-SOUTHEAST DISTRICT,33.8467226,-84.3637487,28100373.36,16580355.56
3,1802, FT. WORTH U PARK VIL,1540  S. UNIVERSITY DR.,FORT WORTH,76107,TX,F,LIFESTYLE CENTER,HOT,CENTRAL-TEXAS,32.7293656,-97.3621393,9314338.33,5883738.47
3,1878," PLANO, TX LEGACY",7400 WINDROSE AVENUE,PLANO,75024,TX,F,LIFESTYLE CENTER,UNKNOWN,CENTRAL-TEXAS,33.0795725,-96.8259135,24546185.96,15105055.29
3,6009, FP MOV AUSTIN TX,11601 CENTURY OAKS TERR.,AUSTIN,78758,TX,UNKNOWN,UNKNOWN,UNKNOWN,WEST COAST-MVMT - WEST COAST,30.4026156,-97.724888,24329888.81,14012002.66
3,6006, FP MOV CHARLOTTE NC,SOUTH PARK MALL,CHARLOTTE,28211,NC,UNKNOWN,UNKNOWN,UNKNOWN,EAST COAST-MVMT - EAST COAST,35.1521816,-80.831755,14204982.69,8617477.12
3,6019, FP MOV AUSTIN TX,2424 GUADALUPE ST.,AUSTIN,78705,TX,UNKNOWN,UNKNOWN,UNKNOWN,WEST COAST-MVMT - WEST COAST,30.2883677,-97.7416969,24130411.98,13899163.62
3,6030, FP MOV CHARLESTON SC,420 KING STREET,CHARLESTON,29403,SC,UNKNOWN,UNKNOWN,UNKNOWN,EAST COAST-MVMT - EAST COAST,32.7879372,-79.9373052,7214169.94,4246617.23
3,851, DURHAM STS SOUTHPOINT,8030  RENAISSANCE PKWY,DURHAM,27713,NC,F,LIFESTYLE CENTER,MILD,EAST COAST-MID-ATLANTIC DISTRICT,35.9044409,-78.9416098,9279604.58,5628263.75
3,863," BIRMINGHAM, AL SUMMIT",214  SUMMIT BLVD.,BIRMINGHAM,35243,AL,F,LIFESTYLE CENTER,MILD,EAST COAST-SOUTHEAST DISTRICT,33.4495444,-86.7276317,5853487.93,3767075.81
3,868, ATLANTA WHITE PROVIS.,1170 HOWELL MILL RD. NW,ATLANTA,30318,GA,F,LIFESTYLE CENTER,MILD,EAST COAST-SOUTHEAST DISTRICT,33.7858541,-84.4123067,24521905.56,14496124.86
3,875, GERMANTOWN TN SDL CRK,7615  W. FARMINGTON BLVD,GERMANTOWN,38138,TN,F,LIFESTYLE CENTER,MILD,EAST COAST-MID-ATLANTIC DISTRICT,35.0942755,-89.8093383,4503886.09,2911329.33
3,879," RIDGELAND, MS  COLONY",1000 HIGHLAND COLONY PKWY,RIDGELAND,39157,MS,F,LIFESTYLE CENTER,MILD,EAST COAST-SOUTHEAST DISTRICT,32.4356677,-90.1465128,2190937.3,1448777.23
3,1805," SAVANNAH, GA",217  WEST BROUGHTON ST.,SAVANNAH,31401,GA,F,METRO,MILD,EAST COAST-SOUTHEAST DISTRICT,32.0794476,-81.0949317,2420330.06,1600663.77